{"type":"FeatureCollection","source":"https://www.crtm.es/tu-transporte-publico/intermodalidad/aparcaplust/","verifiedAt":"2026-09-24","rules":{"freeWhenEligible":true,"requiresPublicTransportTrip":true,"acceptedMedia":["Tarjeta Transporte Público Personal física","Tarjeta Transporte Público Multi","Renfe&Tú"],"validation":"Acreditar el uso del transporte público después de entrar al aparcamiento y antes de retirar el vehículo.","fallback":"Si no se cumplen las condiciones, se aplica la tarifa estándar de rotación del aparcamiento."},"features":[{"type":"Feature","geometry":{"type":"Point","coordinates":[-3.72685,40.44251]},"properties":{"kind":"regional_park_ride","name":"Ciudad Universitaria","municipality":"Madrid","address":"Plaza Ramón y Cajal, 1","postalCode":"28040","spaces":1144,"minHours":5,"maxHours":16,"freeWhenEligible":true,"sourceUrl":"https://www.crtm.es/tu-transporte-publico/intermodalidad/aparcaplust/","verifiedAt":"2026-09-24","coordinatesApproximate":false,"coordinateSource":"https://mapcarta.com/es/N3594825866"}},{"type":"Feature","geometry":{"type":"Point","coordinates":[-3.80785,40.46533]},"properties":{"kind":"regional_park_ride","name":"Estación de El Barrial","municipality":"Madrid","address":"Rafael Botí, 64","postalCode":"28023","spaces":449,"minHours":5,"maxHours":16,"freeWhenEligible":true,"sourceUrl":"https://www.crtm.es/tu-transporte-publico/intermodalidad/aparcaplust/","verifiedAt":"2026-09-24","coordinatesApproximate":true,"coordinateSource":"https://mapcarta.com/es/N9669569787"}},{"type":"Feature","geometry":{"type":"Point","coordinates":[-3.77656,40.6452]},"properties":{"kind":"regional_park_ride","name":"Estación de Colmenar Viejo","municipality":"Colmenar Viejo","address":"Avenida Juan Pablo II","postalCode":"28770","spaces":1837,"minHours":5,"maxHours":15,"freeWhenEligible":true,"sourceUrl":"https://www.crtm.es/tu-transporte-publico/intermodalidad/aparcaplust/","verifiedAt":"2026-09-24","coordinatesApproximate":true,"coordinateSource":"https://mapcarta.com/es/N2092341608"}},{"type":"Feature","geometry":{"type":"Point","coordinates":[-3.86794,40.49429]},"properties":{"kind":"regional_park_ride","name":"Estación de Las Rozas","municipality":"Las Rozas","address":"San Sebastián","postalCode":"28231","spaces":300,"minHours":5,"maxHours":16,"freeWhenEligible":true,"sourceUrl":"https://www.crtm.es/tu-transporte-publico/intermodalidad/aparcaplust/","verifiedAt":"2026-09-24","coordinatesApproximate":true,"coordinateSource":"https://mapcarta.com/es/N5318415085"}},{"type":"Feature","geometry":{"type":"Point","coordinates":[-3.88375,40.52221]},"properties":{"kind":"regional_park_ride","name":"Estación de Pinar de las Rozas","municipality":"Las Rozas","address":"Avenida Gabriel Enrique de la Orden, 106","postalCode":"28230","spaces":890,"minHours":5,"maxHours":16,"freeWhenEligible":true,"sourceUrl":"https://www.crtm.es/tu-transporte-publico/intermodalidad/aparcaplust/","verifiedAt":"2026-09-24","coordinatesApproximate":false,"coordinateSource":"https://mapcarta.com/es/W300959580"}},{"type":"Feature","geometry":{"type":"Point","coordinates":[-3.89667,40.55201]},"properties":{"kind":"regional_park_ride","name":"Estación de Las Matas","municipality":"Las Rozas","address":"Plaza del Ferrocarril, s/n","postalCode":"28290","spaces":203,"minHours":5,"maxHours":16,"freeWhenEligible":true,"sourceUrl":"https://www.crtm.es/tu-transporte-publico/intermodalidad/aparcaplust/","verifiedAt":"2026-09-24","coordinatesApproximate":true,"coordinateSource":"https://mapcarta.com/es/W204188155"}},{"type":"Feature","geometry":{"type":"Point","coordinates":[-3.84597,40.47434]},"properties":{"kind":"regional_park_ride","name":"Estación de Majadahonda","municipality":"Majadahonda","address":"Carretera de El Plantío, s/n","postalCode":"28221","spaces":402,"minHours":5,"maxHours":16,"freeWhenEligible":true,"sourceUrl":"https://www.crtm.es/tu-transporte-publico/intermodalidad/aparcaplust/","verifiedAt":"2026-09-24","coordinatesApproximate":true,"coordinateSource":"https://mapcarta.com/es/N5318466125"}},{"type":"Feature","geometry":{"type":"Point","coordinates":[-3.80006,40.44741]},"properties":{"kind":"regional_park_ride","name":"Antiguo Matadero","municipality":"Pozuelo de Alarcón","address":"Calle de los Trenes","postalCode":"28223","spaces":294,"minHours":5,"maxHours":15,"freeWhenEligible":true,"sourceUrl":"https://www.crtm.es/tu-transporte-publico/intermodalidad/aparcaplust/","verifiedAt":"2026-09-24","coordinatesApproximate":true,"coordinateSource":"https://mapcarta.com/29665604"}}]}
