{
"type": "FeatureCollection",
"name": "crosses",
"crs": { "type": "name", "properties": { "name": "urn:ogc:def:crs:OGC:1.3:CRS84" } },
"features": [
{ "type": "Feature", "properties": { "ID": 2317223, "Color": "Azul", "Bateria_Li": "Línea", "Res_NumPla": 14.0, "Texto_Caje": null, "description": "Aparcamiento: Línea<br>Plazas: 14.0<br>Color: Azul", "zona": "21" }, "geometry": { "type": "LineString", "coordinates": [ [ -3.7182281, 40.4112786 ], [ -3.7185269, 40.410693 ] ] } },
{ "type": "Feature", "properties": { "ID": 2317223, "Color": "Azul", "Bateria_Li": "Línea", "Res_NumPla": 14.0, "Texto_Caje": null, "description": "Aparcamiento: Línea<br>Plazas: 14.0<br>Color: Azul", "zona": "11" }, "geometry": { "type": "LineString", "coordinates": [ [ -3.7182281, 40.4112786 ], [ -3.7185269, 40.410693 ] ] } },
{ "type": "Feature", "properties": { "ID": 2317830, "Color": "Azul", "Bateria_Li": "Batería", "Res_NumPla": 8.0, "Texto_Caje": null, "description": "Aparcamiento: Batería<br>Plazas: 8.0<br>Color: Azul", "zona": "32" }, "geometry": { "type": "LineString", "coordinates": [ [ -3.6759541, 40.4001036 ], [ -3.6757235, 40.3999813 ] ] } },
{ "type": "Feature", "properties": { "ID": 2317830, "Color": "Azul", "Bateria_Li": "Batería", "Res_NumPla": 8.0, "Texto_Caje": null, "description": "Aparcamiento: Batería<br>Plazas: 8.0<br>Color: Azul", "zona": "31" }, "geometry": { "type": "LineString", "coordinates": [ [ -3.6759541, 40.4001036 ], [ -3.6757235, 40.3999813 ] ] } },
{ "type": "Feature", "properties": { "ID": 2317832, "Color": "Azul", "Bateria_Li": "Batería", "Res_NumPla": 6.0, "Texto_Caje": null, "description": "Aparcamiento: Batería<br>Plazas: 6.0<br>Color: Azul", "zona": "32" }, "geometry": { "type": "LineString", "coordinates": [ [ -3.6759744, 40.4000456 ], [ -3.6758044, 40.3999538 ] ] } },
{ "type": "Feature", "properties": { "ID": 2317832, "Color": "Azul", "Bateria_Li": "Batería", "Res_NumPla": 6.0, "Texto_Caje": null, "description": "Aparcamiento: Batería<br>Plazas: 6.0<br>Color: Azul", "zona": "31" }, "geometry": { "type": "LineString", "coordinates": [ [ -3.6759744, 40.4000456 ], [ -3.6758044, 40.3999538 ] ] } },
{ "type": "Feature", "properties": { "ID": 2317834, "Color": "Azul", "Bateria_Li": "Batería", "Res_NumPla": 8.0, "Texto_Caje": null, "description": "Aparcamiento: Batería<br>Plazas: 8.0<br>Color: Azul", "zona": "32" }, "geometry": { "type": "LineString", "coordinates": [ [ -3.6760489, 40.4000183 ], [ -3.6758183, 40.399896 ] ] } },
{ "type": "Feature", "properties": { "ID": 2317834, "Color": "Azul", "Bateria_Li": "Batería", "Res_NumPla": 8.0, "Texto_Caje": null, "description": "Aparcamiento: Batería<br>Plazas: 8.0<br>Color: Azul", "zona": "31" }, "geometry": { "type": "LineString", "coordinates": [ [ -3.6760489, 40.4000183 ], [ -3.6758183, 40.399896 ] ] } },
{ "type": "Feature", "properties": { "ID": 2345568, "Color": "Azul", "Bateria_Li": "Línea", "Res_NumPla": 12.0, "Texto_Caje": null, "description": "Aparcamiento: Línea<br>Plazas: 12.0<br>Color: Azul", "zona": "44" }, "geometry": { "type": "LineString", "coordinates": [ [ -3.6667192, 40.4422963 ], [ -3.666668, 40.4421635 ], [ -3.6665567, 40.441777 ] ] } },
{ "type": "Feature", "properties": { "ID": 2345568, "Color": "Azul", "Bateria_Li": "Línea", "Res_NumPla": 12.0, "Texto_Caje": null, "description": "Aparcamiento: Línea<br>Plazas: 12.0<br>Color: Azul", "zona": "52" }, "geometry": { "type": "LineString", "coordinates": [ [ -3.6667192, 40.4422963 ], [ -3.666668, 40.4421635 ], [ -3.6665567, 40.441777 ] ] } },
{ "type": "Feature", "properties": { "ID": 2345569, "Color": "Azul", "Bateria_Li": "Línea", "Res_NumPla": 12.0, "Texto_Caje": null, "description": "Aparcamiento: Línea<br>Plazas: 12.0<br>Color: Azul", "zona": "44" }, "geometry": { "type": "LineString", "coordinates": [ [ -3.6669157, 40.4417112 ], [ -3.6670787, 40.4421952 ] ] } },
{ "type": "Feature", "properties": { "ID": 2345569, "Color": "Azul", "Bateria_Li": "Línea", "Res_NumPla": 12.0, "Texto_Caje": null, "description": "Aparcamiento: Línea<br>Plazas: 12.0<br>Color: Azul", "zona": "52" }, "geometry": { "type": "LineString", "coordinates": [ [ -3.6669157, 40.4417112 ], [ -3.6670787, 40.4421952 ] ] } },
{ "type": "Feature", "properties": { "ID": 2346097, "Color": "Verde", "Bateria_Li": "Línea", "Res_NumPla": 3.0, "Texto_Caje": null, "description": "Aparcamiento: Línea<br>Plazas: 3.0<br>Color: Verde", "zona": "91" }, "geometry": { "type": "LineString", "coordinates": [ [ -3.736297, 40.4296381 ], [ -3.736143, 40.4297134 ] ] } },
{ "type": "Feature", "properties": { "ID": 2346097, "Color": "Verde", "Bateria_Li": "Línea", "Res_NumPla": 3.0, "Texto_Caje": null, "description": "Aparcamiento: Línea<br>Plazas: 3.0<br>Color: Verde", "zona": "--" }, "geometry": { "type": "LineString", "coordinates": [ [ -3.736297, 40.4296381 ], [ -3.736143, 40.4297134 ] ] } },
{ "type": "Feature", "properties": { "ID": 2348946, "Color": "Verde", "Bateria_Li": "Línea", "Res_NumPla": 13.0, "Texto_Caje": null, "description": "Aparcamiento: Línea<br>Plazas: 13.0<br>Color: Verde", "zona": "61" }, "geometry": { "type": "LineString", "coordinates": [ [ -3.7092934, 40.4485925 ], [ -3.7089746, 40.4480945 ] ] } },
{ "type": "Feature", "properties": { "ID": 2348946, "Color": "Verde", "Bateria_Li": "Línea", "Res_NumPla": 13.0, "Texto_Caje": null, "description": "Aparcamiento: Línea<br>Plazas: 13.0<br>Color: Verde", "zona": "93" }, "geometry": { "type": "LineString", "coordinates": [ [ -3.7092934, 40.4485925 ], [ -3.7089746, 40.4480945 ] ] } },
{ "type": "Feature", "properties": { "ID": 2355167, "Color": "Verde", "Bateria_Li": "Línea", "Res_NumPla": 7.0, "Texto_Caje": null, "description": "Aparcamiento: Línea<br>Plazas: 7.0<br>Color: Verde", "zona": "66" }, "geometry": { "type": "LineString", "coordinates": [ [ -3.7063649, 40.463734 ], [ -3.7061415, 40.4634862 ] ] } },
{ "type": "Feature", "properties": { "ID": 2355167, "Color": "Verde", "Bateria_Li": "Línea", "Res_NumPla": 7.0, "Texto_Caje": null, "description": "Aparcamiento: Línea<br>Plazas: 7.0<br>Color: Verde", "zona": "65" }, "geometry": { "type": "LineString", "coordinates": [ [ -3.7063649, 40.463734 ], [ -3.7061415, 40.4634862 ] ] } },
{ "type": "Feature", "properties": { "ID": 2495342, "Color": "Gris", "Bateria_Li": "Línea", "Res_NumPla": 3.0, "Texto_Caje": null, "description": "Aparcamiento: Línea<br>Plazas: 3.0<br>Color: Gris", "zona": "102" }, "geometry": { "type": "LineString", "coordinates": [ [ -3.7417401, 40.4044929 ], [ -3.7415231, 40.4044807 ] ] } },
{ "type": "Feature", "properties": { "ID": 2495342, "Color": "Gris", "Bateria_Li": "Línea", "Res_NumPla": 3.0, "Texto_Caje": null, "description": "Aparcamiento: Línea<br>Plazas: 3.0<br>Color: Gris", "zona": "--" }, "geometry": { "type": "LineString", "coordinates": [ [ -3.7417401, 40.4044929 ], [ -3.7415231, 40.4044807 ] ] } },
{ "type": "Feature", "properties": { "ID": 2495352, "Color": "Gris", "Bateria_Li": "Línea", "Res_NumPla": 1.0, "Texto_Caje": null, "description": "Aparcamiento: Línea<br>Plazas: 1.0<br>Color: Gris", "zona": "102" }, "geometry": { "type": "LineString", "coordinates": [ [ -3.7422398, 40.404512 ], [ -3.7423143, 40.4045144 ] ] } },
{ "type": "Feature", "properties": { "ID": 2495352, "Color": "Gris", "Bateria_Li": "Línea", "Res_NumPla": 1.0, "Texto_Caje": null, "description": "Aparcamiento: Línea<br>Plazas: 1.0<br>Color: Gris", "zona": "--" }, "geometry": { "type": "LineString", "coordinates": [ [ -3.7422398, 40.404512 ], [ -3.7423143, 40.4045144 ] ] } },
{ "type": "Feature", "properties": { "ID": 2518955, "Color": "Verde", "Bateria_Li": "Línea", "Res_NumPla": 13.0, "Texto_Caje": null, "description": "Aparcamiento: Línea<br>Plazas: 13.0<br>Color: Verde", "zona": "155" }, "geometry": { "type": "LineString", "coordinates": [ [ -3.6593159, 40.4358418 ], [ -3.6592081, 40.4363762 ] ] } },
{ "type": "Feature", "properties": { "ID": 2518955, "Color": "Verde", "Bateria_Li": "Línea", "Res_NumPla": 13.0, "Texto_Caje": null, "description": "Aparcamiento: Línea<br>Plazas: 13.0<br>Color: Verde", "zona": "154" }, "geometry": { "type": "LineString", "coordinates": [ [ -3.6593159, 40.4358418 ], [ -3.6592081, 40.4363762 ] ] } },
{ "type": "Feature", "properties": { "ID": 2527576, "Color": "Verde", "Bateria_Li": "Línea", "Res_NumPla": 1.0, "Texto_Caje": null, "description": "Aparcamiento: Línea<br>Plazas: 1.0<br>Color: Verde", "zona": "66" }, "geometry": { "type": "LineString", "coordinates": [ [ -3.7064026, 40.4636879 ], [ -3.706362, 40.4636425 ] ] } },
{ "type": "Feature", "properties": { "ID": 2527576, "Color": "Verde", "Bateria_Li": "Línea", "Res_NumPla": 1.0, "Texto_Caje": null, "description": "Aparcamiento: Línea<br>Plazas: 1.0<br>Color: Verde", "zona": "65" }, "geometry": { "type": "LineString", "coordinates": [ [ -3.7064026, 40.4636879 ], [ -3.706362, 40.4636425 ] ] } },
{ "type": "Feature", "properties": { "ID": 2528827, "Color": "Verde", "Bateria_Li": "Línea", "Res_NumPla": 19.0, "Texto_Caje": null, "description": "Aparcamiento: Línea<br>Plazas: 19.0<br>Color: Verde", "zona": "23" }, "geometry": { "type": "LineString", "coordinates": [ [ -3.7024793, 40.396378 ], [ -3.7032999, 40.3968152 ] ] } },
{ "type": "Feature", "properties": { "ID": 2528827, "Color": "Verde", "Bateria_Li": "Línea", "Res_NumPla": 19.0, "Texto_Caje": null, "description": "Aparcamiento: Línea<br>Plazas: 19.0<br>Color: Verde", "zona": "22" }, "geometry": { "type": "LineString", "coordinates": [ [ -3.7024793, 40.396378 ], [ -3.7032999, 40.3968152 ] ] } },
{ "type": "Feature", "properties": { "ID": 2567698, "Color": "Gris", "Bateria_Li": "Línea", "Res_NumPla": 8.0, "Texto_Caje": null, "description": "Aparcamiento: Línea<br>Plazas: 8.0<br>Color: Gris", "zona": "102" }, "geometry": { "type": "LineString", "coordinates": [ [ -3.7422659, 40.4053675 ], [ -3.7422897, 40.4050943 ], [ -3.7422919, 40.4049772 ] ] } },
{ "type": "Feature", "properties": { "ID": 2567698, "Color": "Gris", "Bateria_Li": "Línea", "Res_NumPla": 8.0, "Texto_Caje": null, "description": "Aparcamiento: Línea<br>Plazas: 8.0<br>Color: Gris", "zona": "--" }, "geometry": { "type": "LineString", "coordinates": [ [ -3.7422659, 40.4053675 ], [ -3.7422897, 40.4050943 ], [ -3.7422919, 40.4049772 ] ] } },
{ "type": "Feature", "properties": { "ID": 2574796, "Color": "Gris", "Bateria_Li": "LÍNEA", "Res_NumPla": 13.0, "Texto_Caje": null, "description": "Aparcamiento: LÍNEA<br>Plazas: 13.0<br>Color: Gris", "zona": "--" }, "geometry": { "type": "LineString", "coordinates": [ [ -3.7761847, 40.3999437 ], [ -3.7759168, 40.4000386 ], [ -3.7758318, 40.4000633 ], [ -3.7757392, 40.4000745 ], [ -3.7756391, 40.400072 ], [ -3.7755647, 40.4000651 ], [ -3.7755041, 40.4000534 ], [ -3.7754791, 40.400044 ] ] } },
{ "type": "Feature", "properties": { "ID": 2574880, "Color": "Gris", "Bateria_Li": "LÍNEA", "Res_NumPla": 3.0, "Texto_Caje": null, "description": "Aparcamiento: LÍNEA<br>Plazas: 3.0<br>Color: Gris", "zona": "--" }, "geometry": { "type": "LineString", "coordinates": [ [ -3.7783855, 40.3975234 ], [ -3.7781254, 40.3975891 ] ] } },
{ "type": "Feature", "properties": { "ID": 2574881, "Color": "Gris", "Bateria_Li": "Línea", "Res_NumPla": 4.0, "Texto_Caje": null, "description": "Aparcamiento: Línea<br>Plazas: 4.0<br>Color: Gris", "zona": "--" }, "geometry": { "type": "LineString", "coordinates": [ [ -3.7781358, 40.3976174 ], [ -3.7783634, 40.3975706 ] ] } },
{ "type": "Feature", "properties": { "ID": 2575215, "Color": "Gris", "Bateria_Li": "Línea", "Res_NumPla": 4.0, "Texto_Caje": null, "description": "Aparcamiento: Línea<br>Plazas: 4.0<br>Color: Gris", "zona": "--" }, "geometry": { "type": "LineString", "coordinates": [ [ -3.7795541, 40.3968984 ], [ -3.7792741, 40.3971515 ], [ -3.7791906, 40.3971994 ] ] } },
{ "type": "Feature", "properties": { "ID": 2597530, "Color": "Verde", "Bateria_Li": "Línea", "Res_NumPla": 4.0, "Texto_Caje": null, "description": "Aparcamiento: Línea<br>Plazas: 4.0<br>Color: Verde", "zona": "66" }, "geometry": { "type": "LineString", "coordinates": [ [ -3.708667, 40.4619407 ], [ -3.7087739, 40.4617841 ] ] } },
{ "type": "Feature", "properties": { "ID": 2597530, "Color": "Verde", "Bateria_Li": "Línea", "Res_NumPla": 4.0, "Texto_Caje": null, "description": "Aparcamiento: Línea<br>Plazas: 4.0<br>Color: Verde", "zona": "94" }, "geometry": { "type": "LineString", "coordinates": [ [ -3.708667, 40.4619407 ], [ -3.7087739, 40.4617841 ] ] } },
{ "type": "Feature", "properties": { "ID": 2631413, "Color": "Verde", "Bateria_Li": "Línea", "Res_NumPla": 1.0, "Texto_Caje": null, "description": "Aparcamiento: Línea<br>Plazas: 1.0<br>Color: Verde", "zona": "94" }, "geometry": { "type": "LineString", "coordinates": [ [ -3.715024, 40.4597073 ], [ -3.7150076, 40.4596578 ] ] } },
{ "type": "Feature", "properties": { "ID": 2631413, "Color": "Verde", "Bateria_Li": "Línea", "Res_NumPla": 1.0, "Texto_Caje": null, "description": "Aparcamiento: Línea<br>Plazas: 1.0<br>Color: Verde", "zona": "--" }, "geometry": { "type": "LineString", "coordinates": [ [ -3.715024, 40.4597073 ], [ -3.7150076, 40.4596578 ] ] } },
{ "type": "Feature", "properties": { "ID": 2631485, "Color": "Gris", "Bateria_Li": "Línea", "Res_NumPla": 32.0, "Texto_Caje": null, "description": "Aparcamiento: Línea<br>Plazas: 32.0<br>Color: Gris", "zona": "93" }, "geometry": { "type": "LineString", "coordinates": [ [ -3.7160134, 40.4586141 ], [ -3.7176656, 40.4591287 ], [ -3.7178046, 40.4591683 ] ] } },
{ "type": "Feature", "properties": { "ID": 2631485, "Color": "Gris", "Bateria_Li": "Línea", "Res_NumPla": 32.0, "Texto_Caje": null, "description": "Aparcamiento: Línea<br>Plazas: 32.0<br>Color: Gris", "zona": "--" }, "geometry": { "type": "LineString", "coordinates": [ [ -3.7160134, 40.4586141 ], [ -3.7176656, 40.4591287 ], [ -3.7178046, 40.4591683 ] ] } },
{ "type": "Feature", "properties": { "ID": 2637155, "Color": "Gris", "Bateria_Li": "Línea", "Res_NumPla": 28.0, "Texto_Caje": null, "description": "Aparcamiento: Línea<br>Plazas: 28.0<br>Color: Gris", "zona": "--" }, "geometry": { "type": "LineString", "coordinates": [ [ -3.6547132, 40.5128601 ], [ -3.6546907, 40.512822 ], [ -3.6545595, 40.5126887 ], [ -3.654509, 40.5126485 ], [ -3.6543471, 40.512539 ], [ -3.6541096, 40.5123962 ], [ -3.6538409, 40.5122243 ], [ -3.6533467, 40.5119231 ] ] } },
{ "type": "Feature", "properties": { "ID": 2638637, "Color": "Verde", "Bateria_Li": "Línea", "Res_NumPla": 6.0, "Texto_Caje": null, "description": "Aparcamiento: Línea<br>Plazas: 6.0<br>Color: Verde", "zona": "92" }, "geometry": { "type": "LineString", "coordinates": [ [ -3.7169181, 40.4330809 ], [ -3.71707, 40.4330693 ], [ -3.7171229, 40.4330689 ], [ -3.7171537, 40.4330741 ], [ -3.7171802, 40.4330771 ], [ -3.7172628, 40.4331107 ] ] } },
{ "type": "Feature", "properties": { "ID": 2638637, "Color": "Verde", "Bateria_Li": "Línea", "Res_NumPla": 6.0, "Texto_Caje": null, "description": "Aparcamiento: Línea<br>Plazas: 6.0<br>Color: Verde", "zona": "71" }, "geometry": { "type": "LineString", "coordinates": [ [ -3.7169181, 40.4330809 ], [ -3.71707, 40.4330693 ], [ -3.7171229, 40.4330689 ], [ -3.7171537, 40.4330741 ], [ -3.7171802, 40.4330771 ], [ -3.7172628, 40.4331107 ] ] } },
{ "type": "Feature", "properties": { "ID": 2665617, "Color": "Azul", "Bateria_Li": "Línea", "Res_NumPla": 28.0, "Texto_Caje": null, "description": "Aparcamiento: Línea<br>Plazas: 28.0<br>Color: Azul", "zona": "43" }, "geometry": { "type": "LineString", "coordinates": [ [ -3.6607734, 40.4215369 ], [ -3.659087, 40.4215586 ] ] } },
{ "type": "Feature", "properties": { "ID": 2665617, "Color": "Azul", "Bateria_Li": "Línea", "Res_NumPla": 28.0, "Texto_Caje": null, "description": "Aparcamiento: Línea<br>Plazas: 28.0<br>Color: Azul", "zona": "151" }, "geometry": { "type": "LineString", "coordinates": [ [ -3.6607734, 40.4215369 ], [ -3.659087, 40.4215586 ] ] } },
{ "type": "Feature", "properties": { "ID": 2673185, "Color": "Verde", "Bateria_Li": "Batería", "Res_NumPla": 3.0, "Texto_Caje": null, "description": "Aparcamiento: Batería<br>Plazas: 3.0<br>Color: Verde", "zona": "155" }, "geometry": { "type": "LineString", "coordinates": [ [ -3.6563912, 40.4359913 ], [ -3.6563056, 40.4359798 ] ] } },
{ "type": "Feature", "properties": { "ID": 2673185, "Color": "Verde", "Bateria_Li": "Batería", "Res_NumPla": 3.0, "Texto_Caje": null, "description": "Aparcamiento: Batería<br>Plazas: 3.0<br>Color: Verde", "zona": "154" }, "geometry": { "type": "LineString", "coordinates": [ [ -3.6563912, 40.4359913 ], [ -3.6563056, 40.4359798 ] ] } },
{ "type": "Feature", "properties": { "ID": 2674782, "Color": "Azul", "Bateria_Li": "Línea", "Res_NumPla": 16.0, "Texto_Caje": null, "description": "Aparcamiento: Línea<br>Plazas: 16.0<br>Color: Azul", "zona": "23" }, "geometry": { "type": "LineString", "coordinates": [ [ -3.7039623, 40.3969651 ], [ -3.7037437, 40.3969101 ], [ -3.7035886, 40.3968626 ], [ -3.7034643, 40.3968093 ], [ -3.7033473, 40.3967481 ], [ -3.7031176, 40.39662 ] ] } },
{ "type": "Feature", "properties": { "ID": 2674782, "Color": "Azul", "Bateria_Li": "Línea", "Res_NumPla": 16.0, "Texto_Caje": null, "description": "Aparcamiento: Línea<br>Plazas: 16.0<br>Color: Azul", "zona": "22" }, "geometry": { "type": "LineString", "coordinates": [ [ -3.7039623, 40.3969651 ], [ -3.7037437, 40.3969101 ], [ -3.7035886, 40.3968626 ], [ -3.7034643, 40.3968093 ], [ -3.7033473, 40.3967481 ], [ -3.7031176, 40.39662 ] ] } },
{ "type": "Feature", "properties": { "ID": 2678272, "Color": "Verde", "Bateria_Li": "Línea", "Res_NumPla": 50.0, "Texto_Caje": null, "description": "Aparcamiento: Línea<br>Plazas: 50.0<br>Color: Verde", "zona": "102" }, "geometry": { "type": "LineString", "coordinates": [ [ -3.7325447, 40.4053497 ], [ -3.7311963, 40.4061269 ], [ -3.7307813, 40.4063694 ], [ -3.7307812, 40.406366 ], [ -3.7306604, 40.4064343 ], [ -3.7304997, 40.4064911 ], [ -3.730094, 40.4065747 ] ] } },
{ "type": "Feature", "properties": { "ID": 2678272, "Color": "Verde", "Bateria_Li": "Línea", "Res_NumPla": 50.0, "Texto_Caje": null, "description": "Aparcamiento: Línea<br>Plazas: 50.0<br>Color: Verde", "zona": "--" }, "geometry": { "type": "LineString", "coordinates": [ [ -3.7325447, 40.4053497 ], [ -3.7311963, 40.4061269 ], [ -3.7307813, 40.4063694 ], [ -3.7307812, 40.406366 ], [ -3.7306604, 40.4064343 ], [ -3.7304997, 40.4064911 ], [ -3.730094, 40.4065747 ] ] } },
{ "type": "Feature", "properties": { "ID": 2678664, "Color": "Verde", "Bateria_Li": "Línea", "Res_NumPla": 23.0, "Texto_Caje": null, "description": "Aparcamiento: Línea<br>Plazas: 23.0<br>Color: Verde", "zona": "43" }, "geometry": { "type": "LineString", "coordinates": [ [ -3.6604337, 40.4213798 ], [ -3.6590761, 40.421401 ] ] } },
{ "type": "Feature", "properties": { "ID": 2678664, "Color": "Verde", "Bateria_Li": "Línea", "Res_NumPla": 23.0, "Texto_Caje": null, "description": "Aparcamiento: Línea<br>Plazas: 23.0<br>Color: Verde", "zona": "151" }, "geometry": { "type": "LineString", "coordinates": [ [ -3.6604337, 40.4213798 ], [ -3.6590761, 40.421401 ] ] } },
{ "type": "Feature", "properties": { "ID": 2692641, "Color": "Verde", "Bateria_Li": "Línea", "Res_NumPla": 8.0, "Texto_Caje": null, "description": "Aparcamiento: Línea<br>Plazas: 8.0<br>Color: Verde", "zona": "113" }, "geometry": { "type": "LineString", "coordinates": [ [ -3.7196614, 40.3990903 ], [ -3.7196995, 40.3990765 ], [ -3.7197465, 40.3990639 ], [ -3.7198053, 40.3990511 ], [ -3.7199288, 40.3990301 ], [ -3.7200745, 40.3990201 ] ] } },
{ "type": "Feature", "properties": { "ID": 2692641, "Color": "Verde", "Bateria_Li": "Línea", "Res_NumPla": 8.0, "Texto_Caje": null, "description": "Aparcamiento: Línea<br>Plazas: 8.0<br>Color: Verde", "zona": "--" }, "geometry": { "type": "LineString", "coordinates": [ [ -3.7196614, 40.3990903 ], [ -3.7196995, 40.3990765 ], [ -3.7197465, 40.3990639 ], [ -3.7198053, 40.3990511 ], [ -3.7199288, 40.3990301 ], [ -3.7200745, 40.3990201 ] ] } },
{ "type": "Feature", "properties": { "ID": 2692642, "Color": "Verde", "Bateria_Li": "Línea", "Res_NumPla": 21.0, "Texto_Caje": null, "description": "Aparcamiento: Línea<br>Plazas: 21.0<br>Color: Verde", "zona": "113" }, "geometry": { "type": "LineString", "coordinates": [ [ -3.7212865, 40.3992705 ], [ -3.7211312, 40.399205 ], [ -3.7210631, 40.3991807 ], [ -3.720976, 40.3991542 ], [ -3.720778, 40.3990991 ], [ -3.7206613, 40.3990705 ], [ -3.7205639, 40.3990554 ], [ -3.7204503, 40.3990324 ], [ -3.7203618, 40.3990229 ], [ -3.7201835, 40.3990161 ] ] } },
{ "type": "Feature", "properties": { "ID": 2692642, "Color": "Verde", "Bateria_Li": "Línea", "Res_NumPla": 21.0, "Texto_Caje": null, "description": "Aparcamiento: Línea<br>Plazas: 21.0<br>Color: Verde", "zona": "--" }, "geometry": { "type": "LineString", "coordinates": [ [ -3.7212865, 40.3992705 ], [ -3.7211312, 40.399205 ], [ -3.7210631, 40.3991807 ], [ -3.720976, 40.3991542 ], [ -3.720778, 40.3990991 ], [ -3.7206613, 40.3990705 ], [ -3.7205639, 40.3990554 ], [ -3.7204503, 40.3990324 ], [ -3.7203618, 40.3990229 ], [ -3.7201835, 40.3990161 ] ] } },
{ "type": "Feature", "properties": { "ID": 2692648, "Color": "Verde", "Bateria_Li": "Línea", "Res_NumPla": 4.0, "Texto_Caje": null, "description": "Aparcamiento: Línea<br>Plazas: 4.0<br>Color: Verde", "zona": "113" }, "geometry": { "type": "LineString", "coordinates": [ [ -3.7218722, 40.399558 ], [ -3.7221145, 40.3996798 ] ] } },
{ "type": "Feature", "properties": { "ID": 2692648, "Color": "Verde", "Bateria_Li": "Línea", "Res_NumPla": 4.0, "Texto_Caje": null, "description": "Aparcamiento: Línea<br>Plazas: 4.0<br>Color: Verde", "zona": "--" }, "geometry": { "type": "LineString", "coordinates": [ [ -3.7218722, 40.399558 ], [ -3.7221145, 40.3996798 ] ] } },
{ "type": "Feature", "properties": { "ID": 2692659, "Color": "Verde", "Bateria_Li": "Línea", "Res_NumPla": 1.0, "Texto_Caje": null, "description": "Aparcamiento: Línea<br>Plazas: 1.0<br>Color: Verde", "zona": "113" }, "geometry": { "type": "LineString", "coordinates": [ [ -3.7238045, 40.4007719 ], [ -3.7238337, 40.400811 ] ] } },
{ "type": "Feature", "properties": { "ID": 2692659, "Color": "Verde", "Bateria_Li": "Línea", "Res_NumPla": 1.0, "Texto_Caje": null, "description": "Aparcamiento: Línea<br>Plazas: 1.0<br>Color: Verde", "zona": "--" }, "geometry": { "type": "LineString", "coordinates": [ [ -3.7238045, 40.4007719 ], [ -3.7238337, 40.400811 ] ] } },
{ "type": "Feature", "properties": { "ID": 2692827, "Color": "Verde", "Bateria_Li": "Línea", "Res_NumPla": 9.0, "Texto_Caje": null, "description": "Aparcamiento: Línea<br>Plazas: 9.0<br>Color: Verde", "zona": "155" }, "geometry": { "type": "LineString", "coordinates": [ [ -3.6560009, 40.446619 ], [ -3.6557925, 40.4462575 ] ] } },
{ "type": "Feature", "properties": { "ID": 2692827, "Color": "Verde", "Bateria_Li": "Línea", "Res_NumPla": 9.0, "Texto_Caje": null, "description": "Aparcamiento: Línea<br>Plazas: 9.0<br>Color: Verde", "zona": "156" }, "geometry": { "type": "LineString", "coordinates": [ [ -3.6560009, 40.446619 ], [ -3.6557925, 40.4462575 ] ] } },
{ "type": "Feature", "properties": { "ID": 2692834, "Color": "Verde", "Bateria_Li": "Línea", "Res_NumPla": 11.0, "Texto_Caje": null, "description": "Aparcamiento: Línea<br>Plazas: 11.0<br>Color: Verde", "zona": "155" }, "geometry": { "type": "LineString", "coordinates": [ [ -3.6556564, 40.4457482 ], [ -3.6559338, 40.4462286 ] ] } },
{ "type": "Feature", "properties": { "ID": 2692834, "Color": "Verde", "Bateria_Li": "Línea", "Res_NumPla": 11.0, "Texto_Caje": null, "description": "Aparcamiento: Línea<br>Plazas: 11.0<br>Color: Verde", "zona": "156" }, "geometry": { "type": "LineString", "coordinates": [ [ -3.6556564, 40.4457482 ], [ -3.6559338, 40.4462286 ] ] } },
{ "type": "Feature", "properties": { "ID": 2694375, "Color": "Verde", "Bateria_Li": "Línea", "Res_NumPla": 8.0, "Texto_Caje": null, "description": "Aparcamiento: Línea<br>Plazas: 8.0<br>Color: Verde", "zona": "44" }, "geometry": { "type": "LineString", "coordinates": [ [ -3.6594953, 40.4349679 ], [ -3.6600062, 40.4350321 ] ] } },
{ "type": "Feature", "properties": { "ID": 2694375, "Color": "Verde", "Bateria_Li": "Línea", "Res_NumPla": 8.0, "Texto_Caje": null, "description": "Aparcamiento: Línea<br>Plazas: 8.0<br>Color: Verde", "zona": "154" }, "geometry": { "type": "LineString", "coordinates": [ [ -3.6594953, 40.4349679 ], [ -3.6600062, 40.4350321 ] ] } },
{ "type": "Feature", "properties": { "ID": 2694393, "Color": "Verde", "Bateria_Li": "Línea", "Res_NumPla": 9.0, "Texto_Caje": null, "description": "Aparcamiento: Línea<br>Plazas: 9.0<br>Color: Verde", "zona": "44" }, "geometry": { "type": "LineString", "coordinates": [ [ -3.6599693, 40.4352105 ], [ -3.6596827, 40.4351741 ], [ -3.6594236, 40.435139 ] ] } },
{ "type": "Feature", "properties": { "ID": 2694393, "Color": "Verde", "Bateria_Li": "Línea", "Res_NumPla": 9.0, "Texto_Caje": null, "description": "Aparcamiento: Línea<br>Plazas: 9.0<br>Color: Verde", "zona": "154" }, "geometry": { "type": "LineString", "coordinates": [ [ -3.6599693, 40.4352105 ], [ -3.6596827, 40.4351741 ], [ -3.6594236, 40.435139 ] ] } },
{ "type": "Feature", "properties": { "ID": 2711141, "Color": "Verde", "Bateria_Li": "Línea", "Res_NumPla": 3.0, "Texto_Caje": null, "description": "Aparcamiento: Línea<br>Plazas: 3.0<br>Color: Verde", "zona": "102" }, "geometry": { "type": "LineString", "coordinates": [ [ -3.742425, 40.4045827 ], [ -3.7422983, 40.4045811 ], [ -3.74217, 40.4045761 ] ] } },
{ "type": "Feature", "properties": { "ID": 2711141, "Color": "Verde", "Bateria_Li": "Línea", "Res_NumPla": 3.0, "Texto_Caje": null, "description": "Aparcamiento: Línea<br>Plazas: 3.0<br>Color: Verde", "zona": "--" }, "geometry": { "type": "LineString", "coordinates": [ [ -3.742425, 40.4045827 ], [ -3.7422983, 40.4045811 ], [ -3.74217, 40.4045761 ] ] } },
{ "type": "Feature", "properties": { "ID": 2712146, "Color": "Gris", "Bateria_Li": "Batería", "Res_NumPla": 4.0, "Texto_Caje": null, "description": "Aparcamiento: Batería<br>Plazas: 4.0<br>Color: Gris", "zona": "84" }, "geometry": { "type": "LineString", "coordinates": [ [ -3.7141136, 40.4828475 ], [ -3.7139599, 40.4828931 ] ] } },
{ "type": "Feature", "properties": { "ID": 2712146, "Color": "Gris", "Bateria_Li": "Batería", "Res_NumPla": 4.0, "Texto_Caje": null, "description": "Aparcamiento: Batería<br>Plazas: 4.0<br>Color: Gris", "zona": "--" }, "geometry": { "type": "LineString", "coordinates": [ [ -3.7141136, 40.4828475 ], [ -3.7139599, 40.4828931 ] ] } },
{ "type": "Feature", "properties": { "ID": 2737750, "Color": "Verde", "Bateria_Li": "Línea", "Res_NumPla": 6.0, "Texto_Caje": null, "description": "Aparcamiento: Línea<br>Plazas: 6.0<br>Color: Verde", "zona": "125" }, "geometry": { "type": "LineString", "coordinates": [ [ -3.6985371, 40.3885905 ], [ -3.6987054, 40.3887257 ] ] } },
{ "type": "Feature", "properties": { "ID": 2737750, "Color": "Verde", "Bateria_Li": "Línea", "Res_NumPla": 6.0, "Texto_Caje": null, "description": "Aparcamiento: Línea<br>Plazas: 6.0<br>Color: Verde", "zona": "124" }, "geometry": { "type": "LineString", "coordinates": [ [ -3.6985371, 40.3885905 ], [ -3.6987054, 40.3887257 ] ] } },
{ "type": "Feature", "properties": { "ID": 2741535, "Color": "Azul", "Bateria_Li": "Línea", "Res_NumPla": 9.0, "Texto_Caje": null, "description": "Aparcamiento: Línea<br>Plazas: 9.0<br>Color: Azul", "zona": "125" }, "geometry": { "type": "LineString", "coordinates": [ [ -3.7062308, 40.3933279 ], [ -3.7066989, 40.3935513 ] ] } },
{ "type": "Feature", "properties": { "ID": 2741535, "Color": "Azul", "Bateria_Li": "Línea", "Res_NumPla": 9.0, "Texto_Caje": null, "description": "Aparcamiento: Línea<br>Plazas: 9.0<br>Color: Azul", "zona": "111" }, "geometry": { "type": "LineString", "coordinates": [ [ -3.7062308, 40.3933279 ], [ -3.7066989, 40.3935513 ] ] } },
{ "type": "Feature", "properties": { "ID": 2741536, "Color": "Verde", "Bateria_Li": "Línea", "Res_NumPla": 8.0, "Texto_Caje": null, "description": "Aparcamiento: Línea<br>Plazas: 8.0<br>Color: Verde", "zona": "125" }, "geometry": { "type": "LineString", "coordinates": [ [ -3.7068147, 40.3933765 ], [ -3.7063853, 40.393165 ] ] } },
{ "type": "Feature", "properties": { "ID": 2741536, "Color": "Verde", "Bateria_Li": "Línea", "Res_NumPla": 8.0, "Texto_Caje": null, "description": "Aparcamiento: Línea<br>Plazas: 8.0<br>Color: Verde", "zona": "111" }, "geometry": { "type": "LineString", "coordinates": [ [ -3.7068147, 40.3933765 ], [ -3.7063853, 40.393165 ] ] } },
{ "type": "Feature", "properties": { "ID": 2747124, "Color": "Azul", "Bateria_Li": "Línea", "Res_NumPla": 6.0, "Texto_Caje": null, "description": "Aparcamiento: Línea<br>Plazas: 6.0<br>Color: Azul", "zona": "--" }, "geometry": { "type": "LineString", "coordinates": [ [ -3.7173639, 40.3797058 ], [ -3.717056, 40.3796975 ] ] } },
{ "type": "Feature", "properties": { "ID": 2747124, "Color": "Azul", "Bateria_Li": "Línea", "Res_NumPla": 6.0, "Texto_Caje": null, "description": "Aparcamiento: Línea<br>Plazas: 6.0<br>Color: Azul", "zona": "126" }, "geometry": { "type": "LineString", "coordinates": [ [ -3.7173639, 40.3797058 ], [ -3.717056, 40.3796975 ] ] } }
]
}
